COMMENT,ORIGINATOR,NORAD_CAT_ID,OBJECT_NAME,OBJECT_TYPE,CLASSIFICATION_TYPE,INTLDES,EPOCH,EPOCH_MICROSECONDS,MEAN_MOTION,ECCENTRICITY,INCLINATION,RA_OF_ASC_NODE,ARG_OF_PERICENTER,MEAN_ANOMALY,EPHEMERIS_TYPE,ELEMENT_SET_NO,REV_AT_EPOCH,BSTAR,MEAN_MOTION_DOT,MEAN_MOTION_DDOT,FILE,TLE_LINE0,TLE_LINE1,TLE_LINE2,OBJECT_ID,OBJECT_NUMBER,SEMIMAJOR_AXIS,PERIOD,APOGEE,PERIGEE,DECAYED
"GENERATED VIA SPACETRACK.ORG API","18 SPCS","12345","COSMOS 1174 DEB","DEBRIS","U","80030T","1991-09-22 12:38:13","212384","15.25551345","0.0191821","66.0392","63.4364","3.0633","357.1786","0","999","3935","0.0024565","0.00108435","0","34759","0 COSMOS 1174 DEB","1 12345U 80030  T 91265.52654181  .00108435 +00000-0 +24565-2 0  9996","2 12345 066.0392 063.4364 0191821 003.0633 357.1786 15.25551345039359","1980-030T","12345","6867.272","94.392","620.865","357.408","1"
"GENERATED VIA SPACETRACK.ORG API","18 SPCS","12345","COSMOS 1174 DEB","DEBRIS","U","80030T","1991-09-21 20:54:08","898912","15.25408953","0.0194703","66.0427","65.4913","3.6005","356.6553","0","999","3925","0.0024149","0.00107797","0","34759","0 COSMOS 1174 DEB","1 12345U 80030  T 91264.87093633  .00107797 +00000-0 +24149-2 0  9990","2 12345 066.0427 065.4913 0194703 003.6005 356.6553 15.25408953039252","1980-030T","12345","6867.699","94.401","623.280","355.848","1"
"GENERATED VIA SPACETRACK.ORG API","18 SPCS","12345","COSMOS 1174 DEB","DEBRIS","U","80030T","1991-09-20 13:25:43","970016","15.2512543","0.0195513","66.0466","69.5912","4.4649","355.8175","0","999","3905","0.0024023","0.00106581","0","34759","0 COSMOS 1174 DEB","1 12345U 80030  T 91263.55953669  .00106581 +00000-0 +24023-2 0  9999","2 12345 066.0466 069.5912 0195513 004.4649 355.8175 15.25125430039057","1980-030T","12345","6868.550","94.418","624.704","356.126","1"
"GENERATED VIA SPACETRACK.ORG API","18 SPCS","12345","COSMOS 1174 DEB","DEBRIS","U","80030T","1991-09-19 13:49:09","742943","15.24924118","0.0194989","66.0444","72.665","5.2929","354.9514","0","999","3890","0.0024327","0.00106803","0","34759","0 COSMOS 1174 DEB","1 12345U 80030  T 91262.57580721  .00106803 +00000-0 +24327-2 0  9999","2 12345 066.0444 072.6650 0194989 005.2929 354.9514 15.24924118038902","1980-030T","12345","6869.155","94.431","624.961","357.079","1"
"GENERATED VIA SPACETRACK.ORG API","18 SPCS","12345","COSMOS 1174 DEB","DEBRIS","U","80030T","1991-09-18 22:04:41","843135","15.24794181","0.0193911","66.0424","74.7141","5.5887","354.7205","0","999","3880","0.0024731","0.00106404","0","145815","0 COSMOS 1174 DEB","1 12345U 80030  T 91261.91992874  .00106404 +00000-0 +24731-2 0  9998","2 12345 066.0424 074.7141 0193911 005.5887 354.7205 15.24794181038807","1980-030T","12345","6869.545","94.439","624.618","358.202","1"
"GENERATED VIA SPACETRACK.ORG API","18 SPCS","12345","COSMOS 1174 DEB","DEBRIS","U","80030T","1991-09-18 14:12:25","519391","15.24725803","0.0193","66.042","75.7384","6.0298","354.2786","0","999","3875","0.0024918","0.00107369","0","34759","0 COSMOS 1174 DEB","1 12345U 80030  T 91261.59196203  .00107369 +00000-0 +24918-2 0  9992","2 12345 066.0420 075.7384 0193000 006.0298 354.2786 15.24725803038752","1980-030T","12345","6869.750","94.443","624.201","359.029","1"
"GENERATED VIA SPACETRACK.ORG API","18 SPCS","12345","COSMOS 1174 DEB","DEBRIS","U","80030T","1991-09-17 22:27:50","105376","15.24592015","0.019257","66.0415","77.7867","6.4054","353.9405","0","999","3865","0.0025154","0.00106596","0","145815","0 COSMOS 1174 DEB","1 12345U 80030  T 91260.93599659  .00106596 +00000-0 +25154-2 0  9995","2 12345 066.0415 077.7867 0192570 006.4054 353.9405 15.24592015038659","1980-030T","12345","6870.152","94.451","624.316","359.719","1"
"GENERATED VIA SPACETRACK.ORG API","18 SPCS","12345","COSMOS 1174 DEB","DEBRIS","U","80030T","1991-09-17 14:35:30","277248","15.24522552","0.0192024","66.0433","78.8145","6.73","353.6191","0","999","3860","0.0025257","0.00107423","0","34759","0 COSMOS 1174 DEB","1 12345U 80030  T 91260.60798932  .00107423 +00000-0 +25257-2 0  9998","2 12345 066.0433 078.8145 0192024 006.7300 353.6191 15.24522552038604","1980-030T","12345","6870.361","94.456","624.153","360.298","1"
"GENERATED VIA SPACETRACK.ORG API","18 SPCS","12345","COSMOS 1174 DEB","DEBRIS","U","80030T","1991-09-16 22:50:47","805216","15.24384478","0.0192107","66.0436","80.8607","7.1625","353.2307","0","999","3850","0.0025329","0.00106237","0","145815","0 COSMOS 1174 DEB","1 12345U 80030  T 91259.95194219  .00106237 +00000-0 +25329-2 0  9994","2 12345 066.0436 080.8607 0192107 007.1625 353.2307 15.24384478038507","1980-030T","12345","6870.776","94.464","624.633","360.648","1"
"GENERATED VIA SPACETRACK.ORG API","18 SPCS","12345","COSMOS 1174 DEB","DEBRIS","U","80030T","1991-09-15 13:46:36","829631","15.24091026","0.0192818","66.0532","85.1722","7.9743","352.4365","0","999","3829","0.0025241","0.00106115","0","34759","0 COSMOS 1174 DEB","1 12345U 80030  T 91258.57403738  .00106115 +00000-0 +25241-2 0  9998","2 12345 066.0532 085.1722 0192818 007.9743 352.4365 15.24091026038293","1980-030T","12345","6871.658","94.483","626.021","361.025","1"
"GENERATED VIA SPACETRACK.ORG API","18 SPCS","12345","COSMOS 1174 DEB","DEBRIS","U","80030T","1991-09-14 22:01:37","795583","15.239566","0.0193133","66.0525","87.2184","8.3009","352.1309","0","999","3819","0.0025344","0.0010621","0","34759","0 COSMOS 1174 DEB","1 12345U 80030  T 91257.91779856  .00106210 +00000-0 +25344-2 0  9992","2 12345 066.0525 087.2184 0193133 008.3009 352.1309 15.23956600038192","1980-030T","12345","6872.062","94.491","626.649","361.205","1"
"GENERATED VIA SPACETRACK.ORG API","18 SPCS","12345","COSMOS 1174 DEB","DEBRIS","U","80030T","1991-09-14 14:09:05","226047","15.23891459","0.0193593","66.0606","88.2577","8.8027","351.5739","0","999","3814","0.0025345","0.00106228","0","34759","0 COSMOS 1174 DEB","1 12345U 80030  T 91257.58964382  .00106228 +00000-0 +25345-2 0  9995","2 12345 066.0606 088.2577 0193593 008.8027 351.5739 15.23891459038149","1980-030T","12345","6872.258","94.495","627.165","361.080","1"
"GENERATED VIA SPACETRACK.ORG API","18 SPCS","12345","COSMOS 1174 DEB","DEBRIS","U","80030T","1991-09-14 12:34:34","777632","15.23888891","0.0194348","66.053","88.4587","8.5082","351.9213","0","999","3813","0.0025536","0.00107492","0","34759","0 COSMOS 1174 DEB","1 12345U 80030  T 91257.52401363  .00107492 +00000-0 +25536-2 0  9990","2 12345 066.0530 088.4587 0194348 008.5082 351.9213 15.23888891038131","1980-030T","12345","6872.265","94.495","627.691","360.569","1"
"GENERATED VIA SPACETRACK.ORG API","18 SPCS","12345","COSMOS 1174 DEB","DEBRIS","U","80030T","1991-09-13 22:23:58","632863","15.23767229","0.0194269","66.0471","90.2885","8.776","351.6558","0","999","3804","0.0025729","0.00107778","0","34759","0 COSMOS 1174 DEB","1 12345U 80030  T 91256.93331751  .00107778 +00000-0 +25729-2 0  9998","2 12345 066.0471 090.2885 0194269 008.7760 351.6558 15.23767229038044","1980-030T","12345","6872.631","94.503","628.010","360.982","1"
"GENERATED VIA SPACETRACK.ORG API","18 SPCS","12345","COSMOS 1174 DEB","DEBRIS","U","80030T","1991-09-13 12:56:51","709632","15.23697906","0.0195306","66.0483","91.5282","9.0406","351.4098","0","999","3798","0.0025933","0.00109012","0","34759","0 COSMOS 1174 DEB","1 12345U 80030  T 91256.53948738  .00109012 +00000-0 +25933-2 0  9993","2 12345 066.0483 091.5282 0195306 009.0406 351.4098 15.23697906037989","1980-030T","12345","6872.840","94.507","628.935","360.474","1"
"GENERATED VIA SPACETRACK.ORG API","18 SPCS","12345","COSMOS 1174 DEB","DEBRIS","U","80030T","1991-09-12 22:46:09","65855","15.23575508","0.0194951","66.0413","93.3574","9.238","351.2185","0","999","3789","0.0026205","0.00108407","0","145815","0 COSMOS 1174 DEB","1 12345U 80030  T 91255.94871604  .00108407 +00000-0 +26205-2 0  9994","2 12345 066.0413 093.3574 0194951 009.2380 351.2185 15.23575508037892","1980-030T","12345","6873.208","94.515","629.067","361.079","1"
"GENERATED VIA SPACETRACK.ORG API","18 SPCS","12345","COSMOS 1174 DEB","DEBRIS","U","80030T","1991-09-12 14:53:30","23231","15.2350786","0.0195815","66.0485","94.3923","9.7058","350.729","0","999","3784","0.0026136","0.00109413","0","34759","0 COSMOS 1174 DEB","1 12345U 80030  T 91255.62048638  .00109413 +00000-0 +26136-2 0  9993","2 12345 066.0485 094.3923 0195815 009.7058 350.7290 15.23507860037849","1980-030T","12345","6873.411","94.519","629.868","360.684","1"
"GENERATED VIA SPACETRACK.ORG API","18 SPCS","12345","COSMOS 1174 DEB","DEBRIS","U","80030T","1991-09-11 23:08:09","776255","15.23371809","0.0196096","66.0443","96.4337","10.0347","350.4663","0","999","3774","0.0026336","0.0010884","0","145815","0 COSMOS 1174 DEB","1 12345U 80030  T 91254.96400204  .00108840 +00000-0 +26336-2 0  9995","2 12345 066.0443 096.4337 0196096 010.0347 350.4663 15.23371809037745","1980-030T","12345","6873.820","94.527","630.478","360.892","1"
"GENERATED VIA SPACETRACK.ORG API","18 SPCS","12345","COSMOS 1174 DEB","DEBRIS","U","80030T","1991-09-09 15:58:45","831072","15.22871901","0.0199398","66.0507","103.5937","11.2516","349.2467","0","999","3739","0.0025957","0.0010832","0","34759","0 COSMOS 1174 DEB","1 12345U 80030  T 91252.66580823  .00108320 +00000-0 +25957-2 0  9997","2 12345 066.0507 103.5937 0199398 011.2516 349.2467 15.22871901037397","1980-030T","12345","6875.325","94.558","634.282","360.097","1"
"GENERATED VIA SPACETRACK.ORG API","18 SPCS","12345","COSMOS 1174 DEB","DEBRIS","U","80030T","1991-09-09 00:13:01","28352","15.22747366","0.0198083","66.0392","105.6255","11.7093","348.8464","0","999","3729","0.0026778","0.00109378","0","145815","0 COSMOS 1174 DEB","1 12345U 80030  T 91252.00903968  .00109378 +00000-0 +26778-2 0  9990","2 12345 066.0392 105.6255 0198083 011.7093 348.8464 15.22747366037298","1980-030T","12345","6875.699","94.566","633.760","361.368","1"
